[{"OBJECT_NAME":"STARLINK-3504","OBJECT_ID":"2022-022AF","EPOCH":"2026-03-09T23:20:06.291456","MEAN_MOTION":15.08831295,"ECCENTRICITY":0.00013421,"INCLINATION":53.2199,"RA_OF_ASC_NODE":357.8527,"ARG_OF_PERICENTER":84.516,"MEAN_ANOMALY":275.5985,"EPHEMERIS_TYPE":0,"CLASSIFICATION_TYPE":"U","NORAD_CAT_ID":51881,"ELEMENT_SET_NO":999,"REV_AT_EPOCH":22334,"BSTAR":4.0877905e-5,"MEAN_MOTION_DOT":3.63e-6,"MEAN_MOTION_DDOT":0},{"OBJECT_NAME":"CHAMRAN-1","OBJECT_ID":"2024-165B","EPOCH":"2026-03-09T21:50:33.228384","MEAN_MOTION":15.10235792,"ECCENTRICITY":0.0045019,"INCLINATION":64.0789,"RA_OF_ASC_NODE":8.4365,"ARG_OF_PERICENTER":310.8781,"MEAN_ANOMALY":48.8437,"EPHEMERIS_TYPE":0,"CLASSIFICATION_TYPE":"U","NORAD_CAT_ID":61072,"ELEMENT_SET_NO":999,"REV_AT_EPOCH":8166,"BSTAR":0.0004432,"MEAN_MOTION_DOT":7.263e-5,"MEAN_MOTION_DDOT":0}]
